TAF ZJHK 211338Z 211524 14004MPS <span style="color: red">4500</span> BKN030<br/>BECMG 2122 <span style="color: red">3000</span> <span style="color: red">-RA</span> BKN012=