TAF ZJHK 210106Z 210312 14004MPS 9999 SCT020 TX35/06Z TN26/12Z
TEMPO 0610 -SHRA=