TAF ZJHK 240130Z 240312 01004MPS 8000 BKN040<br/>BECMG 0506 <span style="color: red">5000</span> <span style="color: red">-RA</span> FEW010 SCT030CB<br/>TEMPO 0610 <span style="color: red">02008MPS</span> 3000 TSRA=