TAF ZJHK 150726Z 150918 03006G20MPS 7000 <span style="color: red">SA</span> OVC030 BKN040 TX12/12Z TN11/21Z<br/>BECMG 1112 <span style="color: red">36002MPS</span> 3000 -SN BR <span style="color: red">SCT020 OVC030</span><br/>BECMG 1415 0800 SN <span style="color: red">OVC020</span><br/>PROB30 TEMPO 1518 0550 +SN BKN010 OVC020=