TAF ZJHK 150726Z 150918 03006G20MPS 7000 SA OVC030 BKN040 TX12/12Z TN11/21Z 
BECMG 1112 36002MPS 3000 -SN BR SCT020 OVC030 
PROB30 BECMG 1415 0800 SN OVC020 
TEMPO 1518 0550 +SN BKN010 OVC020=