TAF ZJHK 210106Z 210312 14004MPS 9999 SCT020 TX35/06Z TN26/12Z<br/>TEMPO 0610 <span style="color: red">-SHRA</span>=