TAF ZJHK 211338Z 211524 14004MPS 4500 BKN030
BECMG 2122 3000 -RA BKN012=