TAF ZJHK 240130Z 240312 01004MPS 8000 BKN040 
BECMG 0506 5000 -RA FEW010 SCT030CB
TEMPO 0610 02008MPS 3000 TSRA=