TAF ZJHK 211338Z 211524 14004MPS 6000 <span style="color:red">SCT020 FEW030 SCT040</span>=