TAF ZJHK 150726Z 150918 03003G10MPS 1600 OVC040=