TAF ZJHK 150726Z 150918 03003G10MPS <span style="color: red">1600</span> OVC040=