TAF ZJHK 211301Z 211524 14004MPS 9999 SCT020 FEW026CB
BECMG 1718 3000 SHRA
BECMG 1920 SCT020
TEMPO 1620 1000 +TSRA
TEMPO 2024 -SHRA=