TAF ZJHK 211338Z 211524 14004MPS 9999 SCT020 FEW026CB<br/>BECMG 1718 3000 SHRA<br/>BECMG 1920 <span style="color: red">SCT020</span><br/>TEMPO 1620 1000 +TSRA<br/>TEMPO 2024 <span style="color: red">-SHRA</span>=