TAF ZJHK 211145Z 211221 09004MPS 9999 SCT020 TX30/12Z TN21/21Z
BECMG 1213 SCT020 FEW026CB
TEMPO 1216 -TSRA=