TAF ZJHK 240905Z 241212 30006MPS 9999 SCT020 TX30/06Z TN21/21Z<br/>BECMG 2021 2000 BR BCFG=