TAF ZJHK 150726Z 150918 03003G10MPS 1600 BR OVC040
BECMG 1112 4000=