TAF ZJHK 150726Z 150918 18004MPS 2800 -TSRA SCT020 FEW026CB<br/>BECMG 1112 CAVOK=