TAF ZJHK 250249Z 250606 10004MPS 9999 SCT020 FEW026CB TX30/07Z TN25/21Z
BECMG 1415 04010G20MPS
BECMG 0001 10004MPS BKN020
TEMPO 0612 TSRA
TEMPO 1824 1200 +SHRA=