TAF ZJHK 091229Z 0912/1018 00000MPS CAVOK TX30/0913Z TN20/1011Z<br/>BECMG 0913/0914 0800 FG<br/>BECMG 1010/1011 SCT020CB<br/>TEMPO 1011/1017 -TSRA=