TAF ZJHK 091229Z 0912/1018 00000MPS CAVOK TX30/0913Z TN20/1011Z
BECMG 0913/0914 0800 FG
BECMG 1010/1011 SCT020CB
TEMPO 1011/1017 -TSRA=