TAF AMD ZJHK 211338Z 211524 14004MPS 4500 -RA BKN030<br/>BECMG 2122 2500 BR BKN012<br/>TEMPO 1519 07005MPS=