TAF ZJHK 211338Z 211524 14004MPS CAVOK TX30/15Z TN21/21Z<br/>BECMG 2122 2500 BR=