TAF ZJHK 271533Z 271818 16004MPS 5000 BR SCT020 TX30/07Z TN22/21Z 
BECMG 2021 0300 FG
BECMG 0001 3000 BR=