TAF ZJHK 250640Z 2506/2606 00000MPS 0700 FG SCT020 TX30/2506Z TN21/2521Z<br/>BECMG 2510/2511 6000 NSW=