TAF ZJHK 211338Z 211524 14004MPS 0900 <span style="color:red">BR</span> BKN002<br/>BECMG 2122 <span style="color:red">0200</span>=