TAF ZJHK 211338Z 211524 14004MPS 0900 BR BKN002
BECMG 2122 0200=