TAF ZJHK 211338Z 211524 14004MPS 5000 +DZ BKN010
BECMG 2122 1300=