TAF ZJHK 211338Z 211524 14004MPS 6000 <span style="color:red">NSW -RA</span> SCT020<br/>TEMPO 1617 0800 <span style="color:red">FG FU</span>=